#dP2024  4  9  0  0  0.00000000      96 __u+U IGS20 FIT  IAC
## 2309 172800.00000000   900.00000000 60409 0.0000000000000
+  130   C01C02C03C04C05C06C07C08C09C10C11C12C13C14C16C19C20
+        C21C22C23C24C25C26C27C28C29C30C32C33C34C35C36C37C38
+        C39C40C41C42C43C44C45C46C60E02E03E04E05E07E08E09E10
+        E11E12E13E14E15E18E19E21E24E25E26E27E30E31E33E34E36
+        G01G02G03G04G05G06G07G08G09G10G11G12G13G14G15G16G17
+        G18G19G20G21G22G23G24G25G26G27G28G29G30G31G32J02J03
+        J04J07R01R02R03R04R05R06R07R08R09R10R11R12R13R14R15
+        R16R17R18R19R20R21R22R23R24R25R26  0  0  0  0  0  0
++        19 17 17 17 17  9  9 10 10  9  9  9  9  9  9  7  7
++         8  7  7  7  7  7  7  7  7  7  7  7  7  8  7  7  8
++         9  8  7  8  7  8  8  7 17  4  4  4  4  5  5  4  4
++         4  5  5  4  4  0  4  4  4  4  5  4  5  4  5  4  4
++         5  4  4  4  3  4  4  4  4  4  4  4  4  4  4  4  4
++         4  4  4  4  4  4  4  4  4  4  4  4  4  4  4 10 10
++        11 17  8  6  6  6  6 15  6  6  6 16  6  6  7  6  6
++         6  6  6  7  8  6  6 15  6  8  9  0  0  0  0  0  0
%c M  cc GPS ccc cccc cccc cccc cccc ccccc ccccc ccccc ccccc
%c cc cc ccc ccc cccc cccc cccc cccc ccccc ccccc ccccc ccccc
%f  0.0000000  0.000000000  0.00000000000  0.000000000000000
%f  0.0000000  0.000000000  0.00000000000  0.000000000000000
%i    0    0    0    0      0      0      0      0         0
%i    0    0    0    0      0      0      0      0         0
/* INFORMATION & ANALYSIS CENTER (IAC)            RAPID DATA
/* S/V CLOCKS ARE ALIGNED TO GNSS TIME                      
/* G:C1WC2W R:C1PC2P E:C1XC5X C:C2IC6I J:C1CC2S             
/* PCV:IGS20_2290 OL/AL:FES2004  NONE     YN ORB:CoN CLK:CoN
*  2024 04 09 12 45  0.00000000
PC01 -34258.267718  24541.097549   1273.251303    891.206809
PC02   4352.482402  41929.041675    927.387786    587.167328
PC03 -14838.766321  39462.505293   1196.085508    141.072644
PC04 -39589.416557  14462.250774   1043.098241   -111.874628
PC05  21883.653596  36062.192511    419.806607   -882.174738
PC06 -17132.766575  32859.907208 -20336.260085    333.441721
PC07  -5144.430145  37279.635938 -18720.331228   -836.624521
PC08  -6640.044832  19142.383812  36969.906390     -9.859807
PC09 -13134.059280  31567.756518 -24612.179188   -738.176496
PC10   1893.403034  39905.970665 -12244.828750      8.623458
PC11 -19773.898218  12825.445469 -14874.159153    503.268203
PC12 -14010.027555  -6707.191876 -23150.064270   -228.610750
PC13   1881.408977  22796.637019  35613.328972    430.115943
PC14 -16140.219679   2754.711891  22623.691949    603.012879
PC16 -22249.496349  32333.393817 -15568.207518   -447.714538
PC19  10417.428875 -12524.583460 -22632.575445   -915.115443
PC20  18708.459975   5601.321969 -19902.991413   -342.509086
PC21 -16383.826913 -22108.100416   4770.064119   -962.518390
PC22  -4323.767886 -24575.289451 -12527.352981    -44.849516
PC23  -3776.540387  16181.980149 -22418.314984   -775.560223
PC24 -27653.453232  -2143.093917   2954.470463    942.847974
PC25 -21710.597079  10571.997615 -13983.031328    370.503164
PC26 -17548.908685 -12393.393552  17774.355540   -274.786324
PC27   8550.695698  15361.976700  21651.444062    296.582918
PC28  -4970.994148  24769.463181  11859.011320    226.670176
PC29  17182.025617 -20626.221972   7605.270112    265.881717
PC30  18224.292203  -2749.237592  20935.193374    -52.782518
PC32  16487.671821  22012.730070  -4636.215164   -598.605896
PC33 -10477.996309  12468.220280  22664.997150   -969.099178
PC34 -18690.903454   4463.819773 -20259.079913    408.489153
PC35   4148.018072 -24999.007622 -11659.631453    391.120772
PC36  22137.879211  -9946.466301  13801.216717     45.914031
PC37  17029.571570  12907.872890 -17953.053278   -955.664062
PC38 -15203.822066  18516.884844  34727.284376    147.948212
PC39 -24329.314055  32995.235287 -10296.397734     -7.911961
PC40  -9246.852202  34349.335506 -22426.540259    -64.669934
PC41   3652.930392  24281.452033  13297.055243   -921.579516
PC42 -19134.259117  -7290.449847  19024.200739   -443.636824
PC43 -17588.397661  19972.429778  -8450.758303     67.340259
PC44  -9190.301827 -15198.952067 -21533.960332    438.591266
PC45   3836.603554 -16047.778348  22503.107740    -79.467364
PC46  27788.044807   1693.118962  -2210.753241   -138.567900
PC60   7273.539776  41505.382176   1615.434251     -0.562781
PE02  -9710.841293 -21498.624386  17861.758697    118.064625
PE03  -2118.756778 -28966.837627   5753.983865   -106.029498
PE04  13588.026001  15951.395351 -20890.728292   -369.502514
PE05  10373.277735 -24761.831779 -12461.741872   4736.949277
PE07 -16936.267602   5595.214650  23632.051350   -113.598515
PE08 -13154.104149 -16724.278173  20590.013383   -252.273295
PE09  16794.650900  -5516.840251 -23735.353873   -400.930751
PE10  24963.228154   -937.723187  15868.573764   -615.808366
PE11  27502.375903  -8745.187484   6519.016654   3064.584724
PE12  19019.915053   6350.371369  21759.599661   -986.421322
PE13 -27488.904518   8357.310131  -7151.561780    -20.930564
PE14  12185.355630  13177.436222  15796.794881      1.658913
PE15 -18581.950442  -6654.523855 -22059.966984    -96.089234
PE18      0.000000      0.000000      0.000000 999999.999999
PE19    523.337957  29353.066662  -3761.078226   -275.425476
PE21  -9678.187902  13756.653565 -24363.512396   -588.348851
PE24  24382.696921   2693.145315  16558.435045   -697.931959
PE25  10073.911513 -13478.416842  24350.635429      3.136739
PE26 -19700.808581  18454.850125  12156.496482    420.834256
PE27 -24226.720398  -2329.829249 -16845.627827   -320.022739
PE30 -24210.654612 -17007.073202    654.048332   -181.039840
PE31  24326.949404  16857.825411   -516.061814    -20.387905
PE33  -1673.611566  17716.036420  23656.224253     10.182724
PE34   1053.478160 -17551.329041 -23817.372365   -104.700808
PE36  20178.659397 -18225.081987 -11677.436307   -210.961712
PG01  -2211.192822 -15051.509255 -22084.604702    178.860193
PG02   8651.782135 -18679.833572 -16143.939651   -456.305995
PG03  -4689.110987 -18052.372588 -19107.949680    300.947174
PG04   1525.356981 -26436.550007    670.168331    334.774766
PG05  -9948.795688  11398.114778  21661.450682   -168.504660
PG06 -23806.987923   3835.610327 -11195.373580    329.996148
PG07 -11989.583361 -11071.902784  21527.057493   -103.435087
PG08   6456.497824 -23923.063885   8843.000854    111.196019
PG09  -8416.658206 -21820.585530  12459.125278    154.221609
PG10  23862.244389  10139.854191  -6289.489730     -6.971192
PG11 -23735.882738  11817.972170   1026.319916   -631.552854
PG12   1954.467768  18256.443312 -19499.058237   -494.996448
PG13 -13244.481966  17666.889096  14388.546775    641.292869
PG14 -23134.628535 -12944.591872  -2897.289202    371.951373
PG15  -3430.594220  24714.551137   8311.327921    146.579876
PG16  15157.149621  -6481.834483  20584.626245   -320.996023
PG17 -12917.094143 -10449.597556 -20265.928307    711.252042
PG18  12335.707176  10001.588976  21333.263983   -591.385853
PG19 -15177.673234   -549.713575 -21956.647643    465.773915
PG20 -19869.623172   4862.572635  16921.860817    380.817544
PG21  12968.822980 -18665.866177 -12399.279460    127.935293
PG22 -22662.203025  -8265.870379 -10356.655263      3.105947
PG23  20326.671828  16361.622085   5505.221851    196.806537
PG24  -9457.651426  19661.050100 -15275.996416   -457.286335
PG25  12617.269236  19238.616001 -13836.704856    493.364015
PG26  23169.975803   1210.492433  13096.930274    168.960743
PG27  12672.978062 -14908.656731  17469.806215    -17.556431
PG28  22841.987619  -2230.802320 -13379.139493   -196.502328
PG29   4749.170020  23652.946669  10932.095681   -602.418614
PG30 -20778.574003  -2929.676816  16576.637960   -407.763296
PG31  24877.325801  -9096.462342  -4127.907605   -228.031407
PG32  14448.787807   6988.419148 -20985.131019   -617.859263
PJ02 -23263.559588  18436.274047 -25364.388354     -3.856154
PJ03 -29405.900706  30248.988938   6308.658810     -0.083828
PJ04 -25863.703162  26889.204541  25523.137314     50.493667
PJ07 -25393.081335  33666.622242    -48.212397      0.006537
PR01  10636.682807  -2837.371862 -23002.080197     81.994419
PR02   2095.113907 -18628.482910 -17215.210361    -22.699592
PR03  -7830.901120 -24196.267962  -1501.530158     97.915959
PR04 -12844.279144 -16518.375195  14617.580110    231.264078
PR05 -11201.678531     57.668322  22932.848973    129.707793
PR06   -726.083166  19577.947918  16339.723111   -158.313167
PR07   8163.832269  24182.462638    756.009527     79.840514
PR08  13035.860819  16283.568154 -14637.211476    -75.027953
PR09 -10565.031148   9099.455323 -21361.531134    180.045964
PR10   6028.966551  11667.778161 -21892.334332   -147.315822
PR11  21785.244099   8589.867947 -10083.982319     28.513708
PR12  23767.041532   -285.351747   9297.463417     38.790234
PR13  13022.842590  -7802.353048  20483.140907    -46.128269
PR14  -8282.539049 -11783.875735  21066.944235     26.352591
PR15 -22538.119291  -8266.770658   8650.597117     80.645007
PR16 -23871.658651    183.469194  -9030.472587     24.669968
PR17   2822.206856 -16636.053705 -19138.712009     76.460752
PR18 -10011.664157  -4386.741790 -23040.162045    136.308131
PR19 -17729.785354   8141.570040 -16437.822343   -272.444265
PR20 -16193.885378  19425.527447   3519.871239   -110.993846
PR21  -2959.930544  16524.914013  19193.296889    -91.349358
PR22  10929.446444   4032.700546  22714.244324    115.575432
PR23  18340.440970 -11183.787404  13736.205510   -117.362186
PR24  15024.259510 -20221.069784  -4024.919445    -51.143446
PR25  -3090.875361  16547.111538  19162.284212    -28.060533
PR26  13011.039258  17020.209386 -13798.606426    -25.842041
EOF
